ONEWEB-0233             
1 48795U 21045AE  25131.81641649  .00000056  00000+0  11449-3 0  9998
2 48795  87.9061 339.2456 0001418  93.8953 266.2339 13.15549243191525
ONEWEB-0190             
1 48796U 21045AF  25131.80388116  .00000149  00000+0  36083-3 0  9999
2 48796  87.9063 339.2119 0000914  91.6180 268.5055 13.15549707191594
ONEWEB-0236             
1 48797U 21045AG  25132.50583352  .00000016  00000+0  85473-5 0  9999
2 48797  87.9066 339.0784 0001684  90.4283 269.7040 13.15547788192696
ONEWEB-0248             
1 48798U 21045AH  25132.06216399 -.00000038  00000+0 -13588-3 0  9997
2 48798  87.9052 339.1283 0001376 109.6282 250.4997 13.15548752192798
ONEWEB-0225             
1 48799U 21045AJ  25132.08434710  .00000059  00000+0  12255-3 0  9990
2 48799  87.9058 339.1517 0001082  92.4097 267.7157 13.15548392192825
ONEWEB-0215             
1 48800U 21045AK  25132.58664457 -.00000064  00000+0 -20280-3 0  9996
2 48800  87.9053 339.0071 0001163 105.2185 254.9074 13.15547669192741
ONEWEB-0216             
1 48801U 21045AL  25131.83556860 -.00000046  00000+0 -15509-3 0  9990
2 48801  87.9054 339.2016 0001692  79.5328 280.5992 13.15549439191530
ONEWEB-0239             
1 48802U 21045AM  25131.84033119 -.00000047  00000+0 -15805-3 0  9999
2 48802  87.9064 339.2053 0001309 115.7167 244.4099 13.15548840191578
